OBJECT_NAME,OBJECT_ID,EPOCH,MEAN_MOTION,ECCENTRICITY,INCLINATION,RA_OF_ASC_NODE,ARG_OF_PERICENTER,MEAN_ANOMALY,EPHEMERIS_TYPE,CLASSIFICATION_TYPE,NORAD_CAT_ID,ELEMENT_SET_NO,REV_AT_EPOCH,BSTAR,MEAN_MOTION_DOT,MEAN_MOTION_DDOT
SL-16 R/B,1994-077B,2026-06-10T04:41:46.055616,14.15572582,.000266,70.9805,157.8717,331.7900,28.3078,0,U,23405,999,62932,-.9729122E-4,-.238E-5,0
ARIANE 40+ R/B,1995-021B,2026-06-10T04:09:29.341728,14.39829481,.00059897,98.4411,231.3493,216.1125,198.2507,0,U,23561,999,63255,.79971731E-4,.207E-5,0
SL-16 R/B,1995-058B,2026-06-10T04:58:16.370688,14.15505252,.001346,71.0214,346.0140,329.9832,30.0518,0,U,23705,999,58094,.43243493E-4,.37E-6,0
SL-16 R/B,1996-051B,2026-06-10T05:35:02.805504,14.12443587,.00148712,70.7636,339.3675,347.4527,12.6220,0,U,24298,999,53471,.92900132E-4,.122E-5,0
ORBVIEW 2 (SEASTAR),1997-037A,2026-06-10T04:32:47.897664,14.35549894,.00029899,98.8682,328.0149,130.3324,229.8122,0,U,24883,999,52174,.90068471E-4,.213E-5,0
SL-16 R/B,1998-043G,2026-06-10T03:16:06.853152,14.26067451,.00109063,98.8361,115.2349,104.7313,255.5076,0,U,25400,999,45216,.33697379E-4,.35E-6,0
SL-16 R/B,1998-045B,2026-06-10T05:50:20.707872,14.16204960,.00095138,71.0122,346.9333,250.3173,109.6924,0,U,25407,999,44020,-.9501726E-5,-.67E-6,0
ISS (ZARYA),1998-067A,2026-06-10T03:47:59.654112,15.49693861,.00067462,51.6328,334.8807,152.8443,207.2900,0,U,25544,999,57066,.14375612E-3,.7673E-4,0
CZ-4B R/B,1999-025C,2026-06-10T01:57:55.660608,14.18282261,.00382355,98.6485,203.0990,79.5153,334.3645,0,U,25732,999,40126,.42296512E-4,.45E-6,0
OKEAN-O,1999-039A,2026-06-10T04:23:54.299040,14.80458962,.0001785,97.9317,220.0612,77.0448,283.0963,0,U,25860,999,44807,.74239451E-4,.516E-5,0
SL-16 R/B,1999-039B,2026-06-10T03:27:25.111296,14.81838204,.00138788,97.9840,220.0269,321.7105,38.3121,0,U,25861,999,45055,.59691567E-4,.418E-5,0
DELTA 2 R/B,1999-041E,2026-06-10T02:20:16.170432,14.12003036,.05009035,51.7662,292.1173,261.0579,93.3354,0,U,25876,999,37608,.15448741E-3,.725E-5,0
HELIOS 1B,1999-064A,2026-06-10T04:26:34.185696,14.87988155,.00024345,98.1621,66.1221,100.8058,259.3432,0,U,25977,999,69901,.13926305E-3,.1219E-4,0
TERRA,1999-068A,2026-06-10T05:45:22.587264,14.61097506,.00010662,97.9458,211.0613,220.2059,211.9075,0,U,25994,999,40859,.73347546E-4,.316E-5,0
SL-16 R/B,2000-006B,2026-06-09T17:13:13.023840,14.15836114,.001514,71.0031,264.3311,34.7097,325.5011,0,U,26070,999,36158,-.10795E-3,-.26E-5,0
TITAN 4B R/B,2000-047B,2026-06-10T05:43:23.820096,15.10156650,.00455921,67.9872,140.1318,294.2013,65.4375,0,U,26474,999,40688,.17197093E-3,.2742E-4,0
ENVISAT,2002-009A,2026-06-10T03:33:32.942880,14.39063200,.00013424,98.3831,112.6238,90.2729,285.2459,0,U,27386,999,27247,.37335026E-4,.72E-6,0
IDEFIX & ARIANE 42P R/B,2002-021B,2026-06-10T01:37:49.238400,14.31078850,.00105985,98.5942,98.6282,277.3176,82.6802,0,U,27422,999,25723,.87471869E-4,.187E-5,0
AQUA,2002-022A,2026-06-10T06:54:55.143936,14.62147593,.00013816,98.4274,130.4333,53.3609,54.1431,0,U,27424,999,28226,.14351573E-3,.672E-5,0
CZ-4B R/B,2002-024C,2026-06-10T04:02:29.869728,14.14563331,.00511065,98.8701,214.0338,119.7731,308.1245,0,U,27432,999,24231,.3436846E-4,.23E-6,0
MIDORI II (ADEOS-II),2002-056A,2026-06-10T03:18:34.390656,14.29345788,.00022322,98.7875,120.3379,86.7141,273.4296,0,U,27597,999,22350,.10665396E-3,.226E-5,0
H-2A R/B,2002-056E,2026-06-10T03:56:24.936864,14.33819074,.00689425,98.3309,118.0949,245.7970,129.8668,0,U,27601,999,22736,.70888198E-4,.16E-5,0
CZ-4B R/B,2003-049C,2026-06-10T06:51:58.703904,14.55095550,.00471888,98.6896,159.8579,310.1417,49.5649,0,U,28059,999,20006,.73514888E-4,.27E-5,0
CZ-2C R/B,2004-012C,2026-06-10T04:28:01.833312,15.77651762,.00087874,97.7090,236.0413,314.2005,45.8537,0,U,28222,999,21879,.55763417E-3,.93739E-3,0
SL-16 R/B,2004-021B,2026-06-10T02:09:43.511616,14.14611503,.00074856,71.0018,38.5845,262.9856,97.0415,0,U,28353,999,13590,-.11065694E-3,-.26E-5,0
CZ-4B R/B,2004-035C,2026-06-10T01:43:33.583008,15.30522421,.00307574,97.3374,194.2258,3.7958,356.3510,0,U,28415,999,19403,.24794372E-3,.7345E-4,0
CZ-2C R/B,2004-046B,2026-06-10T04:18:56.415168,14.27025090,.01381885,98.1950,70.3982,241.1269,117.5988,0,U,28480,999,12169,.36036777E-4,.55E-6,0
ARIANE 5 R/B,2004-049H,2026-06-10T04:36:41.202720,14.85439408,.00849133,98.2717,333.1753,51.8919,308.9912,0,U,28499,999,15952,.79817229E-4,.669E-5,0
CZ-2D R/B,2005-024B,2026-06-10T00:19:07.768704,15.68777677,.00045291,97.3493,180.0872,70.4609,289.7141,0,U,28738,999,15421,.48753878E-3,.55816E-3,0
ALOS (DAICHI),2006-002A,2026-06-10T03:32:48.888384,14.70036068,.0001721,98.1320,116.7373,60.0449,300.0927,0,U,28931,999,8706,.16352112E-3,.932E-5,0
