SL-16 R/B               
1 23405U 94077B   26161.19567194 -.00000238  00000+0 -97291-4 0  9995
2 23405  70.9805 157.8717 0002660 331.7900  28.3078 14.15572582629328
ARIANE 40+ R/B          
1 23561U 95021B   26161.17325627  .00000207  00000+0  79972-4 0  9999
2 23561  98.4411 231.3493 0005989 216.1125 198.2507 14.39829481632552
SL-16 R/B               
1 23705U 95058B   26161.20713392  .00000037  00000+0  43243-4 0  9996
2 23705  71.0214 346.0140 0013460 329.9832  30.0518 14.15505252580945
SL-16 R/B               
1 24298U 96051B   26161.23267136  .00000122  00000+0  92900-4 0  9990
2 24298  70.7636 339.3675 0014871 347.4527  12.6220 14.12443587534717
ORBVIEW 2 (SEASTAR)     
1 24883U 97037A   26161.18944326  .00000213  00000+0  90068-4 0  9996
2 24883  98.8682 328.0149 0002989 130.3324 229.8122 14.35549894521746
SL-16 R/B               
1 25400U 98043G   26161.13619043  .00000035  00000+0  33697-4 0  9997
2 25400  98.8361 115.2349 0010906 104.7313 255.5076 14.26067451452162
SL-16 R/B               
1 25407U 98045B   26161.24329523 -.00000067  00000+0 -95017-5 0  9991
2 25407  71.0122 346.9333 0009513 250.3173 109.6924 14.16204960440207
ISS (ZARYA)             
1 25544U 98067A   26161.15832933  .00007673  00000+0  14376-3 0  9996
2 25544  51.6328 334.8807 0006746 152.8443 207.2900 15.49693861570666
CZ-4B R/B               
1 25732U 99025C   26161.08189422  .00000045  00000+0  42297-4 0  9990
2 25732  98.6485 203.0990 0038235  79.5153 334.3645 14.18282261401261
OKEAN-O                 
1 25860U 99039A   26161.18326735  .00000516  00000+0  74239-4 0  9992
2 25860  97.9317 220.0612 0001785  77.0448 283.0963 14.80458962448074
SL-16 R/B               
1 25861U 99039B   26161.14404064  .00000418  00000+0  59692-4 0  9998
2 25861  97.9840 220.0269 0013878 321.7105  38.3121 14.81838204450554
DELTA 2 R/B             
1 25876U 99041E   26161.09740938  .00000725  00000+0  15449-3 0  9996
2 25876  51.7662 292.1173 0500903 261.0579  93.3354 14.12003036376080
HELIOS 1B               
1 25977U 99064A   26161.18511789  .00001219  00000+0  13926-3 0  9990
2 25977  98.1621  66.1221 0002434 100.8058 259.3432 14.87988155699011
TERRA                   
1 25994U 99068A   26161.23984476  .00000316  00000+0  73348-4 0  9998
2 25994  97.9458 211.0613 0001066 220.2059 211.9075 14.61097506408590
SL-16 R/B               
1 26070U 00006B   26160.71751185 -.00000260  00000+0 -10795-3 0  9995
2 26070  71.0031 264.3311 0015140  34.7097 325.5011 14.15836114361584
TITAN 4B R/B            
1 26474U 00047B   26161.23847014  .00002742  00000+0  17197-3 0  9991
2 26474  67.9872 140.1318 0045592 294.2013  65.4375 15.10156650406884
ENVISAT                 
1 27386U 02009A   26161.14829795  .00000072  00000+0  37335-4 0  9991
2 27386  98.3831 112.6238 0001342  90.2729 285.2459 14.39063200272477
IDEFIX & ARIANE 42P R/B 
1 27422U 02021B   26161.06793100  .00000187  00000+0  87472-4 0  9991
2 27422  98.5942  98.6282 0010598 277.3176  82.6802 14.31078850257239
AQUA                    
1 27424U 02022A   26161.28813824  .00000672  00000+0  14352-3 0  9999
2 27424  98.4274 130.4333 0001381  53.3609  54.1431 14.62147593282261
CZ-4B R/B               
1 27432U 02024C   26161.16840127  .00000023  00000+0  34368-4 0  9993
2 27432  98.8701 214.0338 0051106 119.7731 308.1245 14.14563331242312
MIDORI II (ADEOS-II)    
1 27597U 02056A   26161.13789804  .00000226  00000+0  10665-3 0  9999
2 27597  98.7875 120.3379 0002232  86.7141 273.4296 14.29345788223503
H-2A R/B                
1 27601U 02056E   26161.16417751  .00000160  00000+0  70888-4 0  9998
2 27601  98.3309 118.0949 0068942 245.7970 129.8668 14.33819074227365
CZ-4B R/B               
1 28059U 03049C   26161.28609611  .00000270  00000+0  73515-4 0  9992
2 28059  98.6896 159.8579 0047188 310.1417  49.5649 14.55095550200065
CZ-2C R/B               
1 28222U 04012C   26161.18613233  .00093739  00000+0  55763-3 0  9995
2 28222  97.7090 236.0413 0008787 314.2005  45.8537 15.77651762218790
SL-16 R/B               
1 28353U 04021B   26161.09008694 -.00000260  00000+0 -11066-3 0  9996
2 28353  71.0018  38.5845 0007485 262.9856  97.0415 14.14611503135905
CZ-4B R/B               
1 28415U 04035C   26161.07191647  .00007345  00000+0  24794-3 0  9990
2 28415  97.3374 194.2258 0030757   3.7958 356.3510 15.30522421194035
CZ-2C R/B               
1 28480U 04046B   26161.17981962  .00000055  00000+0  36037-4 0  9997
2 28480  98.1950  70.3982 0138188 241.1269 117.5988 14.27025090121697
ARIANE 5 R/B            
1 28499U 04049H   26161.19214355  .00000669  00000+0  79817-4 0  9991
2 28499  98.2717 333.1753 0084913  51.8919 308.9912 14.85439408159521
CZ-2D R/B               
1 28738U 05024B   26161.01328436  .00055816  00000+0  48754-3 0  9997
2 28738  97.3493 180.0872 0004529  70.4609 289.7141 15.68777677154213
ALOS (DAICHI)           
1 28931U 06002A   26161.14778806  .00000932  00000+0  16352-3 0  9991
2 28931  98.1320 116.7373 0001721  60.0449 300.0927 14.70036068 87067
